     2              NAVIGATION DATA                         RINEX VERSION / TYPE
CCRINEXN V1.6.0 UX  CDDIS               11-APR-10 19:55     PGM / RUN BY / DATE 
IGS BROADCAST EPHEMERIS FILE                                COMMENT             
    0.1118E-07  0.1490E-07 -0.5960E-07 -0.5960E-07          ION ALPHA           
    0.8806E+05  0.1638E+05 -0.1966E+06 -0.1311E+06          ION BETA            
    0.186264514923E-08 0.142108547152E-13   233472     1579 DELTA-UTC: A0,A1,T,W
    15                                                      LEAP SECONDS        
                                                            END OF HEADER       
 2 10  4 11  0  0  0.0 0.245233066380E-03 0.363797880709E-11 0.000000000000E+00
    0.138000000000E+03 0.570312500000E+02 0.481734351884E-08-0.122908125093E+01
    0.290200114250E-05 0.949413864873E-02 0.949017703533E-05 0.515356832504E+04
    0.000000000000E+00-0.502914190292E-07 0.107414985260E+00-0.221654772759E-06
    0.940527093712E+00 0.187843750000E+03 0.302659267362E+01-0.818034074403E-08
    0.499663670140E-09 0.100000000000E+01 0.157900000000E+04 0.000000000000E+00
    0.200000000000E+01 0.000000000000E+00-0.172294676304E-07 0.138000000000E+03
   -0.300000000000E+02 0.400000000000E+01 0.000000000000E+00 0.000000000000E+00
 3 10  4 11  0  0  0.0 0.540219713002E-03 0.511590769747E-11 0.000000000000E+00
    0.380000000000E+02-0.565312500000E+02 0.520700238482E-08-0.129842269014E+01
   -0.291317701340E-05 0.129544604570E-01 0.875070691109E-05 0.515370411873E+04
    0.000000000000E+00 0.305473804474E-06-0.104406758725E+01 0.223517417908E-06
    0.926974101289E+00 0.190500000000E+03 0.987721683830E+00-0.838642044698E-08
   -0.438946851089E-09 0.100000000000E+01 0.157900000000E+04 0.000000000000E+00
    0.200000000000E+01 0.000000000000E+00-0.419095158577E-08 0.380000000000E+02
    0.000000000000E+00 0.000000000000E+00 0.000000000000E+00 0.000000000000E+00
 4 10  4 11  0  0  0.0 0.571585260332E-04 0.864019966684E-11 0.000000000000E+00
    0.820000000000E+02 0.672187500000E+02 0.493699135979E-08 0.185920935046E+01
    0.346638262272E-05 0.907803536393E-02 0.953674316406E-05 0.515367150307E+04
    0.000000000000E+00-0.124797224999E-06 0.125326039898E+00 0.111758708954E-07
    0.939667209482E+00 0.186718750000E+03 0.602909297364E+00-0.830391732006E-08
    0.335371112410E-09 0.100000000000E+01 0.157900000000E+04 0.000000000000E+00
    0.200000000000E+01 0.000000000000E+00-0.605359673500E-08 0.820000000000E+02
   -0.336000000000E+04 0.400000000000E+01 0.000000000000E+00 0.000000000000E+00
 5 10  4 11  0  0  0.0-0.193808227778E-05 0.227373675443E-12 0.000000000000E+00
    0.710000000000E+02 0.187500000000E+01 0.492163357722E-08 0.307807487474E+00
    0.163912773132E-06 0.187987438403E-02 0.375881791115E-05 0.515367743492E+04
    0.000000000000E+00 0.298023223877E-07 0.116680187613E+01 0.298023223877E-07
    0.958702063160E+00 0.305562500000E+03 0.345664839105E+00-0.845606651483E-08
    0.371444043564E-10 0.100000000000E+01 0.157900000000E+04 0.000000000000E+00
    0.200000000000E+01 0.000000000000E+00-0.884756445885E-08 0.710000000000E+02
   -0.300000000000E+02 0.400000000000E+01 0.000000000000E+00 0.000000000000E+00
 6 10  4 11  0  0  0.0 0.669501256198E-03-0.909494701773E-11 0.000000000000E+00
    0.850000000000E+02-0.625000000000E+02 0.499770817461E-08 0.943702268164E+00
   -0.350736081600E-05 0.619192852173E-02 0.927783548832E-05 0.515366850090E+04
    0.000000000000E+00 0.409781932831E-07-0.973828501512E+00-0.108033418655E-06
    0.934382044877E+00 0.188062500000E+03-0.110478754697E+01-0.836177687300E-08
   -0.425374861428E-09 0.100000000000E+01 0.157900000000E+04 0.000000000000E+00
    0.200000000000E+01 0.000000000000E+00-0.465661287308E-08 0.850000000000E+02
   -0.718200000000E+04 0.400000000000E+01 0.000000000000E+00 0.000000000000E+00
 6 10  4 11  1 59 28.0 0.669434200972E-03-0.909494701773E-11 0.000000000000E+00
    0.340000000000E+02-0.670312500000E+02 0.505985362036E-08 0.198924709400E+01
   -0.339746475220E-05 0.619226228446E-02 0.875815749168E-05 0.515366829872E+04
    0.716800000000E+04 0.931322574615E-07-0.973887736528E+00 0.745058059692E-08
    0.934379328238E+00 0.190937500000E+03-0.110481266820E+01-0.825034365993E-08
   -0.461090634847E-09 0.100000000000E+01 0.157900000000E+04 0.000000000000E+00
    0.200000000000E+01 0.000000000000E+00-0.465661287308E-08 0.340000000000E+02
    0.424800000000E+04 0.400000000000E+01 0.000000000000E+00 0.000000000000E+00
